STARLINK-31275          
1 59197U 24045V   26068.78785110  .00000059  00000+0  11678-4 0  9995
2 59197  43.0053  92.2241 0001998 270.6780  89.3843 15.27567189113174
FLOCK 4G-8              
1 62613U 25009E   26068.72381419  .00013559  00000+0  50438-3 0  9996
2 62613  97.4045 151.2834 0003050 315.2538  44.8455 15.27623414 63721
